ATLAS CENTAUR 2         
1 00694U 63047A   26164.88792704  .00001304  00000+0  14423-3 0  9997
2 00694  30.3571  17.8440 0545972 208.4186 148.5586 14.12513268145230
THOR AGENA D R/B        
1 00733U 64002A   26165.29631964  .00000143  00000+0  68232-4 0  9997
2 00733  99.1155 183.8724 0032455 339.1335  20.8521 14.34064579252149
SL-3 R/B                
1 00877U 64053B   26164.97675405  .00000101  00000+0  43862-4 0  9990
2 00877  65.0776  48.9261 0081062 262.1111  97.0783 14.61425521280865
SL-8 R/B                
1 02802U 67045B   26165.24866486  .00000180  00000+0  57419-4 0  9996
2 02802  74.0094 167.7469 0063549 152.9061 207.5439 14.45681040102971
SL-8 R/B                
1 03230U 68040B   26165.25580293  .00002564  00000+0  18830-3 0  9999
2 03230  74.0301 116.2854 0025972 269.9522  89.8691 15.03802567104522
OAO 2                   
1 03597U 68110A   26165.08815069  .00000178  00000+0  53012-4 0  9997
2 03597  34.9937  86.9823 0006205 251.7190 108.2825 14.47350890 33075
ISIS 1                  
1 03669U 69009A   26165.18216325  .00000035  00000+0  25981-4 0  9992
2 03669  88.4427 144.7299 1706137 254.2982  86.4086 11.30433539359430
SERT 2                  
1 04327U 70009A   26165.32043326 -.00000019  00000+0  30599-4 0  9995
2 04327  99.2842 103.1874 0003971 282.4922 192.7917 13.58738954793014
SL-3 R/B                
1 05118U 71028B   26165.31403291  .00049004  00000+0  41280-3 0  9990
2 05118  81.2334 291.9366 0013859 290.7458  69.2314 15.69495908  3795
ASTEX 1                 
1 05560U 71089A   26164.96865651  .00000445  00000+0  11281-3 0  9994
2 05560  92.6998 182.8192 0017725 115.6815 244.6224 14.50849515876266
SL-8 R/B                
1 05730U 71119B   26165.02915161  .00003452  00000+0  17857-3 0  9993
2 05730  73.8874 355.3827 0543769 301.9842  52.9547 14.39489437669340
OAO 3 (COPERNICUS)      
1 06153U 72065A   26165.15079404  .00000259  00000+0  57400-4 0  9990
2 06153  35.0052 107.7054 0007200 232.6681 144.3190 14.60058833860300
ATLAS CENTAUR R/B       
1 06155U 72065B   26164.15696250  .00001043  00000+0  14466-3 0  9991
2 06155  35.0011 106.1686 0032787  94.2707 266.1741 14.77913609855397
SL-8 R/B                
1 08459U 75112B   26165.25846919  .00000208  00000+0  76993-4 0  9993
2 08459  74.0595 201.2618 0016861 268.5602  91.3620 14.38244929645753
SL-3 R/B                
1 10114U 77057B   26165.24326979  .00010912  00000+0  21179-3 0  9990
2 10114  97.5828 341.6419 0005421 298.3704  61.6999 15.47829039683253
SEASAT 1                
1 10967U 78064A   26165.26533741  .00000240  00000+0  10529-3 0  9994
2 10967 108.0168 328.1554 0001904 240.6388 119.4568 14.46241467520473
SL-14 R/B               
1 11267U 79011B   26165.29174525  .00000464  00000+0  43072-4 0  9993
2 11267  82.5239   4.9023 0017541  94.3877 265.9348 14.92011868543180
SL-8 R/B                
1 11574U 79089B   26165.29198104  .00000182  00000+0  62955-4 0  9996
2 11574  74.0694 272.2168 0014932  57.1369 303.1222 14.42402849450031
SL-14 R/B               
1 11672U 80005B   26165.23414918  .00000424  00000+0  40220-4 0  9993
2 11672  82.5142 215.6415 0015219 195.9157 164.1587 14.91026800490871
SL-8 R/B                
1 12139U 81003B   26165.11224849  .00017623  00000+0  43235-3 0  9997
2 12139  82.9363 200.6286 0250549 201.9123 157.1252 15.14139935329251
SL-3 R/B                
1 12465U 81046B   26165.27337504  .00010727  00000+0  23201-3 0  9995
2 12465  81.2289 173.5790 0018821  47.4799 312.8031 15.44143120453322
SL-3 R/B                
1 12904U 81103B   26165.22752580  .00004979  00000+0  21495-3 0  9992
2 12904  81.1588 100.1100 0011980 326.8558  33.1921 15.22263911987913
SL-3 R/B                
1 13068U 82013B   26165.20005794  .00003237  00000+0  13670-3 0  9993
2 13068  81.1748  47.5646 0021197 211.2426 148.7549 15.22771299419039
SL-3 R/B                
1 13154U 82039B   26165.25268693  .00003197  00000+0  19072-3 0  9998
2 13154  81.1440 104.4771 0029189   5.9390 354.2175 15.10521989396212
SL-3 R/B                
1 13403U 82079B   26165.23068760  .00004607  00000+0  17804-3 0  9998
2 13403  81.1470  78.9843 0023462 195.5941 164.4573 15.25767414392415
SL-14 R/B               
1 13553U 82092B   26165.29769326  .00000376  00000+0  39406-4 0  9993
2 13553  82.5682  51.0071 0019916 345.1190 102.3640 14.86746012343288
SL-3 R/B                
1 13819U 83010B   26165.28175145  .00014409  00000+0  26270-3 0  9994
2 13819  81.1024 243.5424 0015679  72.1930 288.1025 15.49175116372888
SL-3 R/B                
1 14208U 83075B   26165.27583078  .00009396  00000+0  23284-3 0  9996
2 14208  97.6096 173.6612 0019092 240.3587 119.5758 15.40445923345016
COSMOS 1536             
1 14699U 84013A   26165.07850549  .00005501  00000+0  21859-3 0  9991
2 14699  82.5442  11.9419 0012817 307.6860  52.3215 15.25023137287307
SL-14 R/B               
1 14820U 84027B   26165.25227143  .00000408  00000+0  43770-4 0  9998
2 14820  82.5411 154.4695 0018430  18.6945 341.4945 14.86057740261978
